OBJECT_NAME,OBJECT_ID,EPOCH,MEAN_MOTION,ECCENTRICITY,INCLINATION,RA_OF_ASC_NODE,ARG_OF_PERICENTER,MEAN_ANOMALY,EPHEMERIS_TYPE,CLASSIFICATION_TYPE,NORAD_CAT_ID,ELEMENT_SET_NO,REV_AT_EPOCH,BSTAR,MEAN_MOTION_DOT,MEAN_MOTION_DDOT
STARLINK-38033,2026-150A,2026-07-11T22:00:03.000096,15.80797089,.00012292,97.2847,31.0888,87.5000,256.7101,0,U,69739,999,277,.13676466E-3,.2611E-3,0
STARLINK-38076,2026-150B,2026-07-11T22:00:03.000096,15.75165489,.0000762,97.2843,31.0730,100.6510,204.1624,0,U,69740,999,277,.10225573E-3,.15133E-3,0
STARLINK-38074,2026-150C,2026-07-11T22:00:03.000096,15.80793290,.0001168,97.2847,31.0947,83.2273,275.6617,0,U,69741,999,277,.14771644E-3,.28215E-3,0
STARLINK-38041,2026-150D,2026-07-11T22:00:03.000096,15.80804089,.00008582,97.2848,31.0968,118.9357,243.8937,0,U,69742,999,277,.92225889E-4,.17549E-3,0
STARLINK-38087,2026-150E,2026-07-11T22:00:03.000096,15.80792399,.00012621,97.2846,31.0981,96.2046,271.2767,0,U,69743,999,277,.17446699E-3,.33368E-3,0
STARLINK-38078,2026-150F,2026-07-11T22:00:03.000096,15.80791466,.00010317,97.2844,31.1001,87.8996,283.8517,0,U,69744,999,277,.18342385E-3,.35094E-3,0
STARLINK-38047,2026-150G,2026-07-11T22:00:03.000096,15.80828270,.00010779,97.2845,31.1019,88.5848,287.7026,0,U,69745,999,277,-.11491829E-3,-.2211E-3,0
STARLINK-38046,2026-150H,2026-07-11T22:00:03.000096,15.80792039,.00011263,97.2846,31.1070,100.7608,286.4678,0,U,69746,999,277,.19486679E-3,.37302E-3,0
STARLINK-38067,2026-150J,2026-07-11T22:00:03.000096,15.75165350,.0000853,97.2847,31.1011,104.4809,266.3189,0,U,69747,999,277,.19565288E-3,.29121E-3,0
STARLINK-37988,2026-150K,2026-07-11T22:00:03.000096,15.75165179,.00011596,97.2845,31.1050,79.3789,301.4356,0,U,69748,999,277,.1107561E-3,.16404E-3,0
STARLINK-37987,2026-150L,2026-07-11T22:00:03.000096,15.78780544,.00014144,97.2845,31.1123,92.5047,306.6905,0,U,69749,999,277,-.12111033E-1,-.1853784E-1,0
STARLINK-38037,2026-150M,2026-07-11T22:00:03.000096,15.80802395,.00011441,97.2843,31.1190,106.0606,307.1633,0,U,69750,999,277,.19742932E-3,.37815E-3,0
STARLINK-38049,2026-150N,2026-07-11T22:00:03.000096,15.80800147,.00012122,97.2844,31.1211,100.9054,318.1092,0,U,69751,999,277,.14299713E-3,.27314E-3,0
STARLINK-38029,2026-150P,2026-07-11T22:00:03.000096,15.80805256,.00010531,97.2841,31.1347,100.5894,351.1242,0,U,69752,999,277,.41768862E-4,.7862E-4,0
STARLINK-37965,2026-150Q,2026-07-11T22:00:03.000096,15.79674103,.00016847,97.2838,31.1350,85.3429,6.7807,0,U,69753,999,277,-.11770866E-1,-.1873921E-1,0
STARLINK-38048,2026-150R,2026-07-11T22:00:03.000096,15.80801030,.00009476,97.2838,31.1357,86.9387,6.8903,0,U,69754,999,277,.76080352E-4,.14445E-3,0
STARLINK-38006,2026-150S,2026-07-11T22:00:03.000096,15.80805294,.00008693,97.2838,31.1436,89.6101,19.8170,0,U,69755,999,277,.17740428E-3,.33954E-3,0
STARLINK-38036,2026-150T,2026-07-11T22:00:03.000096,15.80761737,.00011753,97.2844,31.1465,102.0466,15.0773,0,U,69756,999,277,.52496017E-3,.101336E-2,0
STARLINK-38058,2026-150U,2026-07-11T22:00:03.000096,15.80789324,.00009464,97.2841,31.1480,95.1529,23.4023,0,U,69757,999,277,.31942354E-3,.61398E-3,0
STARLINK-38066,2026-150V,2026-07-11T22:00:03.000096,15.80801676,.00012795,97.2840,31.1476,91.4245,27.9799,0,U,69758,999,277,.12583299E-3,.24011E-3,0
STARLINK-38035,2026-150W,2026-07-11T22:00:03.000096,15.80837044,.00009846,97.2844,31.1476,90.9381,29.0755,0,U,69759,999,277,.33354918E-3,.64281E-3,0
STARLINK-38056,2026-150X,2026-07-11T22:00:03.000096,15.80799199,.00012333,97.2840,31.1564,100.9604,38.8137,0,U,69760,999,277,.12219735E-3,.23309E-3,0
STARLINK-38069,2026-150Y,2026-07-11T22:00:03.000096,15.80792760,.00012734,97.2840,31.1659,90.2167,69.2265,0,U,69761,999,277,.26448553E-3,.50761E-3,0
STARLINK-38019,2026-150Z,2026-07-11T22:00:03.000096,15.77090668,.00015691,97.2841,31.1630,84.1620,71.0103,0,U,69762,999,277,-.12699893E-1,-.1808204E-1,0
KUIPER-00258,2026-151A,2026-07-11T22:00:03.000096,15.35390622,.00117582,51.8670,196.3633,158.2931,31.3233,0,U,69763,999,187,.14071629E-2,.49155E-3,0
KUIPER-00526,2026-151B,2026-07-11T22:00:03.000096,15.37255875,.00061754,51.8762,196.2415,129.8638,119.7456,0,U,69764,999,163,.13431685E-2,.49746E-3,0
KUIPER-00558,2026-151C,2026-07-11T22:00:03.000096,15.36746603,.00077537,51.8754,196.2753,140.8916,92.3556,0,U,69765,999,211,.12938563E-2,.47118E-3,0
KUIPER-00569,2026-151D,2026-07-11T22:00:03.000096,15.37407366,.00052238,51.8785,196.2261,127.9419,128.1740,0,U,69766,999,130,.13464776E-2,.50111E-3,0
KUIPER-00589,2026-151E,2026-07-11T22:00:03.000096,15.37350473,.00055017,51.8752,196.2355,133.2645,119.6549,0,U,69767,999,214,.13433175E-2,.499E-3,0
KUIPER-00598,2026-151F,2026-07-11T22:00:03.000096,15.35419589,.00100772,51.8635,196.3516,156.8377,37.6972,0,U,69768,999,205,.36003955E-3,.12231E-3,0
