STARLINK-38033          
1 69739U 26150A   26192.91670139  .00026110  00000+0  13676-3 0  9999
2 69739  97.2847  31.0888 0001229  87.5000 256.7101 15.80797089  2777
STARLINK-38076          
1 69740U 26150B   26192.91670139  .00015133  00000+0  10226-3 0  9992
2 69740  97.2843  31.0730 0000762 100.6510 204.1624 15.75165489  2779
STARLINK-38074          
1 69741U 26150C   26192.91670139  .00028215  00000+0  14772-3 0  9998
2 69741  97.2847  31.0947 0001168  83.2273 275.6617 15.80793290  2775
STARLINK-38041          
1 69742U 26150D   26192.91670139  .00017549  00000+0  92226-4 0  9998
2 69742  97.2848  31.0968 0000858 118.9357 243.8937 15.80804089  2775
STARLINK-38087          
1 69743U 26150E   26192.91670139  .00033368  00000+0  17447-3 0  9997
2 69743  97.2846  31.0981 0001262  96.2046 271.2767 15.80792399  2778
STARLINK-38078          
1 69744U 26150F   26192.91670139  .00035094  00000+0  18342-3 0  9991
2 69744  97.2844  31.1001 0001031  87.8996 283.8517 15.80791466  2771
STARLINK-38047          
1 69745U 26150G   26192.91670139 -.00022110  00000+0 -11492-3 0  9998
2 69745  97.2845  31.1019 0001077  88.5848 287.7026 15.80828270  2778
STARLINK-38046          
1 69746U 26150H   26192.91670139  .00037302  00000+0  19487-3 0  9998
2 69746  97.2846  31.1070 0001126 100.7608 286.4678 15.80792039  2775
STARLINK-38067          
1 69747U 26150J   26192.91670139  .00029121  00000+0  19565-3 0  9996
2 69747  97.2847  31.1011 0000853 104.4809 266.3189 15.75165350  2770
STARLINK-37988          
1 69748U 26150K   26192.91670139  .00016404  00000+0  11076-3 0  9996
2 69748  97.2845  31.1050 0001159  79.3789 301.4356 15.75165179  2775
STARLINK-37987          
1 69749U 26150L   26192.91670139 -.01853784  00000+0 -12111-1 0  9999
2 69749  97.2845  31.1123 0001414  92.5047 306.6905 15.78780544  2774
STARLINK-38037          
1 69750U 26150M   26192.91670139  .00037815  00000+0  19743-3 0  9997
2 69750  97.2843  31.1190 0001144 106.0606 307.1633 15.80802395  2776
STARLINK-38049          
1 69751U 26150N   26192.91670139  .00027314  00000+0  14300-3 0  9995
2 69751  97.2844  31.1211 0001212 100.9054 318.1092 15.80800147  2772
STARLINK-38029          
1 69752U 26150P   26192.91670139  .00007862  00000+0  41769-4 0  9992
2 69752  97.2841  31.1347 0001053 100.5894 351.1242 15.80805256  2771
STARLINK-37965          
1 69753U 26150Q   26192.91670139 -.01873921  00000+0 -11771-1 0  9990
2 69753  97.2838  31.1350 0001684  85.3429   6.7807 15.79674103  2779
STARLINK-38048          
1 69754U 26150R   26192.91670139  .00014445  00000+0  76080-4 0  9993
2 69754  97.2838  31.1357 0000947  86.9387   6.8903 15.80801030  2779
STARLINK-38006          
1 69755U 26150S   26192.91670139  .00033954  00000+0  17740-3 0  9997
2 69755  97.2838  31.1436 0000869  89.6101  19.8170 15.80805294  2771
STARLINK-38036          
1 69756U 26150T   26192.91670139  .00101336  00000+0  52496-3 0  9995
2 69756  97.2844  31.1465 0001175 102.0466  15.0773 15.80761737  2776
STARLINK-38058          
1 69757U 26150U   26192.91670139  .00061398  00000+0  31942-3 0  9992
2 69757  97.2841  31.1480 0000946  95.1529  23.4023 15.80789324  2771
STARLINK-38066          
1 69758U 26150V   26192.91670139  .00024011  00000+0  12583-3 0  9994
2 69758  97.2840  31.1476 0001279  91.4245  27.9799 15.80801676  2774
STARLINK-38035          
1 69759U 26150W   26192.91670139  .00064281  00000+0  33355-3 0  9998
2 69759  97.2844  31.1476 0000984  90.9381  29.0755 15.80837044  2779
STARLINK-38056          
1 69760U 26150X   26192.91670139  .00023309  00000+0  12220-3 0  9994
2 69760  97.2840  31.1564 0001233 100.9604  38.8137 15.80799199  2773
STARLINK-38069          
1 69761U 26150Y   26192.91670139  .00050761  00000+0  26449-3 0  9995
2 69761  97.2840  31.1659 0001273  90.2167  69.2265 15.80792760  2775
STARLINK-38019          
1 69762U 26150Z   26192.91670139 -.01808204  00000+0 -12700-1 0  9995
2 69762  97.2841  31.1630 0001569  84.1620  71.0103 15.77090668  2776
KUIPER-00258            
1 69763U 26151A   26192.91670139  .00049155  00000+0  14072-2 0  9991
2 69763  51.8670 196.3633 0011758 158.2931  31.3233 15.35390622  1879
KUIPER-00526            
1 69764U 26151B   26192.91670139  .00049746  00000+0  13432-2 0  9997
2 69764  51.8762 196.2415 0006175 129.8638 119.7456 15.37255875  1638
KUIPER-00558            
1 69765U 26151C   26192.91670139  .00047118  00000+0  12939-2 0  9990
2 69765  51.8754 196.2753 0007753 140.8916  92.3556 15.36746603  2114
KUIPER-00569            
1 69766U 26151D   26192.91670139  .00050111  00000+0  13465-2 0  9993
2 69766  51.8785 196.2261 0005223 127.9419 128.1740 15.37407366  1301
KUIPER-00589            
1 69767U 26151E   26192.91670139  .00049900  00000+0  13433-2 0  9993
2 69767  51.8752 196.2355 0005501 133.2645 119.6549 15.37350473  2141
KUIPER-00598            
1 69768U 26151F   26192.91670139  .00012231  00000+0  36004-3 0  9991
2 69768  51.8635 196.3516 0010077 156.8377  37.6972 15.35419589  2050
